CCSDS_OMM_VERS = 2.0
CREATION_DATE  = 
ORIGINATOR     = 

OBJECT_NAME    = COSMOS 1933
OBJECT_ID      = 1988-020A
CENTER_NAME    = EARTH
REF_FRAME      = TEME
TIME_SYSTEM    = UTC
MEAN_ELEMENT_THEORY = SGP/SGP4

EPOCH          = 2026-01-22T05:52:42.538656
MEAN_MOTION    = 15.17538173
ECCENTRICITY   = .00050109
INCLINATION    = 82.5144
RA_OF_ASC_NODE = 296.8516
ARG_OF_PERICENTER = 25.6479
MEAN_ANOMALY   = 334.5002

EPHEMERIS_TYPE = 0
CLASSIFICATION_TYPE = U
NORAD_CAT_ID   = 18958
ELEMENT_SET_NO = 999
REV_AT_EPOCH   = 4318
BSTAR          = .34923554E-3
MEAN_MOTION_DOT = .7037E-4
MEAN_MOTION_DDOT = 0

CCSDS_OMM_VERS = 2.0
CREATION_DATE  = 
ORIGINATOR     = 

OBJECT_NAME    = SL-3 R/B
OBJECT_ID      = 1988-032B
CENTER_NAME    = EARTH
REF_FRAME      = TEME
TIME_SYSTEM    = UTC
MEAN_ELEMENT_THEORY = SGP/SGP4

EPOCH          = 2026-01-22T05:50:20.070240
MEAN_MOTION    = 15.19247068
ECCENTRICITY   = .00276725
INCLINATION    = 97.5128
RA_OF_ASC_NODE = 5.7063
ARG_OF_PERICENTER = 39.2087
MEAN_ANOMALY   = 321.1145

EPHEMERIS_TYPE = 0
CLASSIFICATION_TYPE = U
NORAD_CAT_ID   = 19046
ELEMENT_SET_NO = 999
REV_AT_EPOCH   = 4505
BSTAR          = .37708258E-3
MEAN_MOTION_DOT = .7959E-4
MEAN_MOTION_DDOT = 0

CCSDS_OMM_VERS = 2.0
CREATION_DATE  = 
ORIGINATOR     = 

OBJECT_NAME    = SL-16 R/B
OBJECT_ID      = 1988-039B
CENTER_NAME    = EARTH
REF_FRAME      = TEME
TIME_SYSTEM    = UTC
MEAN_ELEMENT_THEORY = SGP/SGP4

EPOCH          = 2026-01-21T20:10:34.401216
MEAN_MOTION    = 14.19608375
ECCENTRICITY   = .00200669
INCLINATION    = 71.0141
RA_OF_ASC_NODE = 167.6088
ARG_OF_PERICENTER = 47.8167
MEAN_ANOMALY   = 312.4658

EPHEMERIS_TYPE = 0
CLASSIFICATION_TYPE = U
NORAD_CAT_ID   = 19120
ELEMENT_SET_NO = 999
REV_AT_EPOCH   = 95173
BSTAR          = .52861735E-4
MEAN_MOTION_DOT = .64E-6
MEAN_MOTION_DDOT = 0

CCSDS_OMM_VERS = 2.0
CREATION_DATE  = 
ORIGINATOR     = 

OBJECT_NAME    = COSMOS 1953
OBJECT_ID      = 1988-050A
CENTER_NAME    = EARTH
REF_FRAME      = TEME
TIME_SYSTEM    = UTC
MEAN_ELEMENT_THEORY = SGP/SGP4

EPOCH          = 2026-01-21T23:59:54.028032
MEAN_MOTION    = 15.27518733
ECCENTRICITY   = .00104065
INCLINATION    = 82.5067
RA_OF_ASC_NODE = 205.1651
ARG_OF_PERICENTER = 291.6715
MEAN_ANOMALY   = 68.3416

EPHEMERIS_TYPE = 0
CLASSIFICATION_TYPE = U
NORAD_CAT_ID   = 19210
ELEMENT_SET_NO = 999
REV_AT_EPOCH   = 3065
BSTAR          = .44001045E-3
MEAN_MOTION_DOT = .11896E-3
MEAN_MOTION_DDOT = 0

CCSDS_OMM_VERS = 2.0
CREATION_DATE  = 
ORIGINATOR     = 

OBJECT_NAME    = SL-8 R/B
OBJECT_ID      = 1988-053B
CENTER_NAME    = EARTH
REF_FRAME      = TEME
TIME_SYSTEM    = UTC
MEAN_ELEMENT_THEORY = SGP/SGP4

EPOCH          = 2026-01-22T05:38:21.203232
MEAN_MOTION    = 14.38884728
ECCENTRICITY   = .00196399
INCLINATION    = 74.0457
RA_OF_ASC_NODE = 198.0845
ARG_OF_PERICENTER = 27.5913
MEAN_ANOMALY   = 144.9927

EPHEMERIS_TYPE = 0
CLASSIFICATION_TYPE = U
NORAD_CAT_ID   = 19257
ELEMENT_SET_NO = 999
REV_AT_EPOCH   = 96991
BSTAR          = .13379382E-3
MEAN_MOTION_DOT = .387E-5
MEAN_MOTION_DDOT = 0

CCSDS_OMM_VERS = 2.0
CREATION_DATE  = 
ORIGINATOR     = 

OBJECT_NAME    = COSMOS 1975
OBJECT_ID      = 1988-093A
CENTER_NAME    = EARTH
REF_FRAME      = TEME
TIME_SYSTEM    = UTC
MEAN_ELEMENT_THEORY = SGP/SGP4

EPOCH          = 2026-01-21T21:22:25.889952
MEAN_MOTION    = 15.27149430
ECCENTRICITY   = .00110906
INCLINATION    = 82.5215
RA_OF_ASC_NODE = 164.6146
ARG_OF_PERICENTER = 340.9019
MEAN_ANOMALY   = 19.1802

EPHEMERIS_TYPE = 0
CLASSIFICATION_TYPE = U
NORAD_CAT_ID   = 19573
ELEMENT_SET_NO = 999
REV_AT_EPOCH   = 1226
BSTAR          = .43621717E-3
MEAN_MOTION_DOT = .11665E-3
MEAN_MOTION_DDOT = 0

CCSDS_OMM_VERS = 2.0
CREATION_DATE  = 
ORIGINATOR     = 

OBJECT_NAME    = SL-14 R/B
OBJECT_ID      = 1988-093B
CENTER_NAME    = EARTH
REF_FRAME      = TEME
TIME_SYSTEM    = UTC
MEAN_ELEMENT_THEORY = SGP/SGP4

EPOCH          = 2026-01-22T06:09:25.106112
MEAN_MOTION    = 14.85601837
ECCENTRICITY   = .00205059
INCLINATION    = 82.5299
RA_OF_ASC_NODE = 85.6438
ARG_OF_PERICENTER = 187.6093
MEAN_ANOMALY   = 237.0431

EPHEMERIS_TYPE = 0
CLASSIFICATION_TYPE = U
NORAD_CAT_ID   = 19574
ELEMENT_SET_NO = 999
REV_AT_EPOCH   = 99414
BSTAR          = .97903421E-4
MEAN_MOTION_DOT = .874E-5
MEAN_MOTION_DDOT = 0

CCSDS_OMM_VERS = 2.0
CREATION_DATE  = 
ORIGINATOR     = 

OBJECT_NAME    = SL-16 R/B
OBJECT_ID      = 1988-102B
CENTER_NAME    = EARTH
REF_FRAME      = TEME
TIME_SYSTEM    = UTC
MEAN_ELEMENT_THEORY = SGP/SGP4

EPOCH          = 2026-01-22T01:46:22.101888
MEAN_MOTION    = 14.16147920
ECCENTRICITY   = .00119218
INCLINATION    = 70.9980
RA_OF_ASC_NODE = 249.5785
ARG_OF_PERICENTER = 80.1845
MEAN_ANOMALY   = 280.0624

EPHEMERIS_TYPE = 0
CLASSIFICATION_TYPE = U
NORAD_CAT_ID   = 19650
ELEMENT_SET_NO = 999
REV_AT_EPOCH   = 92029
BSTAR          = .8172549E-4
MEAN_MOTION_DOT = .114E-5
MEAN_MOTION_DDOT = 0

CCSDS_OMM_VERS = 2.0
CREATION_DATE  = 
ORIGINATOR     = 

OBJECT_NAME    = INTERCOSMOS 24
OBJECT_ID      = 1989-080A
CENTER_NAME    = EARTH
REF_FRAME      = TEME
TIME_SYSTEM    = UTC
MEAN_ELEMENT_THEORY = SGP/SGP4

EPOCH          = 2026-01-22T06:11:09.314016
MEAN_MOTION    = 12.59495738
ECCENTRICITY   = .11888495
INCLINATION    = 82.6079
RA_OF_ASC_NODE = 134.6149
ARG_OF_PERICENTER = 40.5827
MEAN_ANOMALY   = 327.8002

EPHEMERIS_TYPE = 0
CLASSIFICATION_TYPE = U
NORAD_CAT_ID   = 20261
ELEMENT_SET_NO = 999
REV_AT_EPOCH   = 66095
BSTAR          = .22767211E-3
MEAN_MOTION_DOT = .797E-5
MEAN_MOTION_DDOT = 0

CCSDS_OMM_VERS = 2.0
CREATION_DATE  = 
ORIGINATOR     = 

OBJECT_NAME    = SL-14 R/B
OBJECT_ID      = 1989-080C
CENTER_NAME    = EARTH
REF_FRAME      = TEME
TIME_SYSTEM    = UTC
MEAN_ELEMENT_THEORY = SGP/SGP4

EPOCH          = 2026-01-22T05:26:53.559456
MEAN_MOTION    = 12.50443262
ECCENTRICITY   = .12295915
INCLINATION    = 82.5919
RA_OF_ASC_NODE = 203.0195
ARG_OF_PERICENTER = 291.0294
MEAN_ANOMALY   = 56.3714

EPHEMERIS_TYPE = 0
CLASSIFICATION_TYPE = U
NORAD_CAT_ID   = 20262
ELEMENT_SET_NO = 999
REV_AT_EPOCH   = 65434
BSTAR          = .11566564E-3
MEAN_MOTION_DOT = .381E-5
MEAN_MOTION_DDOT = 0

CCSDS_OMM_VERS = 2.0
CREATION_DATE  = 
ORIGINATOR     = 

OBJECT_NAME    = DELTA 1 R/B
OBJECT_ID      = 1989-089B
CENTER_NAME    = EARTH
REF_FRAME      = TEME
TIME_SYSTEM    = UTC
MEAN_ELEMENT_THEORY = SGP/SGP4

EPOCH          = 2026-01-22T04:46:52.346208
MEAN_MOTION    = 14.50615631
ECCENTRICITY   = .0067532
INCLINATION    = 97.0734
RA_OF_ASC_NODE = 237.0216
ARG_OF_PERICENTER = 269.6989
MEAN_ANOMALY   = 89.6471

EPHEMERIS_TYPE = 0
CLASSIFICATION_TYPE = U
NORAD_CAT_ID   = 20323
ELEMENT_SET_NO = 999
REV_AT_EPOCH   = 88899
BSTAR          = .20213231E-3
MEAN_MOTION_DOT = .78E-5
MEAN_MOTION_DDOT = 0

CCSDS_OMM_VERS = 2.0
CREATION_DATE  = 
ORIGINATOR     = 

OBJECT_NAME    = ARIANE 40 R/B
OBJECT_ID      = 1990-005H
CENTER_NAME    = EARTH
REF_FRAME      = TEME
TIME_SYSTEM    = UTC
MEAN_ELEMENT_THEORY = SGP/SGP4

EPOCH          = 2026-01-22T04:25:42.310272
MEAN_MOTION    = 14.39834144
ECCENTRICITY   = .00097398
INCLINATION    = 98.3179
RA_OF_ASC_NODE = 84.2083
ARG_OF_PERICENTER = 351.5832
MEAN_ANOMALY   = 8.5191

EPHEMERIS_TYPE = 0
CLASSIFICATION_TYPE = U
NORAD_CAT_ID   = 20443
ELEMENT_SET_NO = 999
REV_AT_EPOCH   = 88611
BSTAR          = .22317145E-3
MEAN_MOTION_DOT = .658E-5
MEAN_MOTION_DDOT = 0

