COSMOS 1933             
1 18958U 88020A   26022.24493679  .00007037  00000+0  34924-3 0  9996
2 18958  82.5144 296.8516 0005010  25.6479 334.5002 15.17538173 43187
SL-3 R/B                
1 19046U 88032B   26022.24328785  .00007959  00000+0  37708-3 0  9999
2 19046  97.5128   5.7063 0027672  39.2087 321.1145 15.19247068 45052
SL-16 R/B               
1 19120U 88039B   26021.84067594  .00000064  00000+0  52862-4 0  9991
2 19120  71.0141 167.6088 0020066  47.8167 312.4658 14.19608375951730
COSMOS 1953             
1 19210U 88050A   26021.99993088  .00011896  00000+0  44001-3 0  9996
2 19210  82.5067 205.1651 0010406 291.6715  68.3416 15.27518733 30659
SL-8 R/B                
1 19257U 88053B   26022.23496763  .00000387  00000+0  13379-3 0  9993
2 19257  74.0457 198.0845 0019639  27.5913 144.9927 14.38884728969916
COSMOS 1975             
1 19573U 88093A   26021.89057743  .00011665  00000+0  43622-3 0  9995
2 19573  82.5215 164.6146 0011090 340.9019  19.1802 15.27149430 12263
SL-14 R/B               
1 19574U 88093B   26022.25654058  .00000874  00000+0  97903-4 0  9991
2 19574  82.5299  85.6438 0020505 187.6093 237.0431 14.85601837994143
SL-16 R/B               
1 19650U 88102B   26022.07386692  .00000114  00000+0  81725-4 0  9995
2 19650  70.9980 249.5785 0011921  80.1845 280.0624 14.16147920920295
INTERCOSMOS 24          
1 20261U 89080A   26022.25774669  .00000797  00000+0  22767-3 0  9993
2 20261  82.6079 134.6149 1188849  40.5827 327.8002 12.59495738660959
SL-14 R/B               
1 20262U 89080C   26022.22700879  .00000381  00000+0  11567-3 0  9998
2 20262  82.5919 203.0195 1229591 291.0294  56.3714 12.50443262654341
DELTA 1 R/B             
1 20323U 89089B   26022.19921697  .00000780  00000+0  20213-3 0  9995
2 20323  97.0734 237.0216 0067532 269.6989  89.6471 14.50615631888994
ARIANE 40 R/B           
1 20443U 90005H   26022.18451748  .00000658  00000+0  22317-3 0  9993
2 20443  98.3179  84.2083 0009739 351.5832   8.5191 14.39834144886111
